OBJECT_NAME,OBJECT_ID,EPOCH,MEAN_MOTION,ECCENTRICITY,INCLINATION,RA_OF_ASC_NODE,ARG_OF_PERICENTER,MEAN_ANOMALY,EPHEMERIS_TYPE,CLASSIFICATION_TYPE,NORAD_CAT_ID,ELEMENT_SET_NO,REV_AT_EPOCH,BSTAR,MEAN_MOTION_DOT,MEAN_MOTION_DDOT
M2 PATHFINDER,2020-037E,2026-07-12T12:22:48.137952,15.04786510,.00131107,97.8146,25.0339,70.7385,289.5258,0,U,45727,999,32930,.67432922E-4,.888E-5,0
NETSAT-4,2020-068U,2026-07-12T14:09:28.122912,15.44697807,.0004454,97.8604,203.8873,202.8550,157.2500,0,U,46504,999,31969,.25035E-3,.11591E-3,0
NETSAT-3,2020-068V,2026-07-12T13:12:46.134144,15.43547770,.0003506,97.8651,202.0304,222.8875,137.2098,0,U,46505,999,31959,.26275E-3,.11703E-3,0
NETSAT-1,2020-068W,2026-07-12T13:26:25.759104,15.35206696,.0002396,97.8750,196.0670,279.0913,81.0057,0,U,46506,999,31919,.22326E-3,.7541E-4,0
NETSAT-2,2020-068X,2026-07-12T11:07:23.727648,15.47081469,.00017834,97.8611,203.7420,220.9475,139.1640,0,U,46507,999,31964,.30146263E-3,.15171E-3,0
GREENCUBE (IO-117),2022-080E,2026-07-12T17:00:29.176992,6.42583319,.000903,70.1415,289.3709,284.1311,75.8345,0,U,53109,999,9370,0,-.3E-7,0
SITRO-AIS 5 (KATYS),2023-091L,2026-07-12T20:13:03.804096,15.30033654,.0010898,97.5054,257.9936,20.6882,339.4797,0,U,57176,999,16826,.28943E-3,.8351E-4,0
SITRO-AIS 6 (CHIRKIN),2023-091AC,2026-07-12T19:34:44.269824,15.26411543,.0011442,97.5061,256.9480,24.7153,335.4631,0,U,57192,999,16819,.24886E-3,.6415E-4,0
SITRO-AIS 8 (ANOKHIN),2023-091AD,2026-07-12T19:31:44.257152,15.32817602,.0009774,97.5051,259.6597,16.7911,343.3652,0,U,57193,999,16837,.30002E-3,.9444E-4,0
SITRO-AIS 7 (FARTUSHNIY),2023-091AE,2026-07-12T19:46:57.501696,15.26086498,.0011381,97.5057,256.7680,25.9112,334.2694,0,U,57194,999,16818,.23588E-3,.6016E-4,0
SITRO-AIS 10 (BURDAEV),2023-091AK,2026-07-12T19:12:21.352032,15.39570828,.0005066,97.5076,264.9700,351.2591,8.8566,0,U,57199,999,16870,.38731E-3,.15169E-3,0
SITRO-AIS 9 (SHCHUKIN),2023-091AM,2026-07-12T20:02:22.752384,15.39057173,.0005332,97.5075,264.7151,351.5759,8.5396,0,U,57201,999,16869,.37458E-3,.14422E-3,0
SITRO-AIS 12 (SMIRENNIY),2023-091AQ,2026-07-12T19:41:50.511264,15.39352662,.0004866,97.5088,265.1838,344.6999,15.4098,0,U,57204,999,16871,.37594E-3,.14614E-3,0
SITRO-AIS 11 (SHEFFER),2023-091AU,2026-07-12T19:50:46.250016,15.39794628,.0004778,97.5086,265.4532,344.0347,16.0747,0,U,57208,999,16873,.37228E-3,.14683E-3,0
SITRO-AIS 25,2024-039R,2026-07-12T20:02:20.052384,14.93634499,.0142606,95.3894,252.7172,237.8660,120.8662,0,U,59066,999,12855,.14453E-3,.1828E-4,0
SITRO-AIS 26,2024-039S,2026-07-12T20:09:23.863392,14.93426413,.0142945,95.3895,252.6129,238.4707,120.2491,0,U,59067,999,12854,.14534E-3,.183E-4,0
SITRO-AIS 27,2024-039T,2026-07-12T20:52:35.941152,14.93851996,.0142003,95.3899,252.9173,236.9007,121.8521,0,U,59068,999,12857,.12361E-3,.1565E-4,0
SITRO-AIS 28,2024-039U,2026-07-12T20:19:17.756256,14.93884755,.0141919,95.3897,252.9500,236.8123,121.9427,0,U,59071,999,12857,.15582E-3,.1984E-4,0
GRBBETA,2024-128C,2026-07-12T20:05:03.801120,15.06799769,.0037349,61.9895,126.2630,140.1454,220.2393,0,U,60237,999,11013,.15266E-3,.2098E-4,0
OOV-CUBE (TUBSAT-30),2024-128F,2026-07-12T09:44:43.201248,15.02866804,.00414886,61.9937,137.6292,139.4098,221.0100,0,U,60240,999,10990,.95468612E-4,.1093E-4,0
ROBUSTA-3A (MEDITERRANEE),2024-128J,2026-07-12T19:08:36.987648,15.11965964,.0038297,61.9863,117.6573,133.5108,226.9182,0,U,60243,999,11029,.27955E-3,.4676E-4,0
LASARSAT,2024-247Q,2026-07-12T05:19:43.614048,15.47906721,.0006861,44.9750,121.3703,145.2871,214.8468,0,U,62391,999,8719,.43384E-3,.22836E-3,0
CROCUBE,2024-247T,2026-07-11T23:51:35.008416,15.50022679,.00071113,44.9710,119.5598,151.4755,208.6527,0,U,62394,999,8719,.48357142E-3,.27505E-3,0
FORESAIL-1 PRIME,2025-276DS,2026-07-12T03:55:56.677152,15.18922403,.00031233,97.4195,265.9794,51.5125,308.6390,0,U,66778,999,3419,.14066162E-3,.2869E-4,0
KNACKSAT-2,1998-067XZ,2026-07-12T10:39:42.222816,15.62203060,.00081528,51.6258,167.2182,318.8485,41.1893,0,U,67683,999,2422,.37969135E-3,.33729E-3,0
