M2 PATHFINDER           
1 45727U 20037E   26193.51583493  .00000888  00000+0  67433-4 0  9996
2 45727  97.8146  25.0339 0013110  70.7385 289.5258 15.04786510329303
NETSAT-4                
1 46504U 20068U   26193.58990883  .00011591  00000+0  25035-3 0  9990
2 46504  97.8604 203.8873 0004454 202.8550 157.2500 15.44697807319694
NETSAT-3                
1 46505U 20068V   26193.55053396  .00011703  00000+0  26275-3 0  9999
2 46505  97.8651 202.0304 0003506 222.8875 137.2098 15.43547770319597
NETSAT-1                
1 46506U 20068W   26193.56002036  .00007541  00000+0  22326-3 0  9994
2 46506  97.8750 196.0670 0002396 279.0913  81.0057 15.35206696319196
NETSAT-2                
1 46507U 20068X   26193.46346907  .00015171  00000+0  30146-3 0  9999
2 46507  97.8611 203.7420 0001783 220.9475 139.1640 15.47081469319644
GREENCUBE (IO-117)      
1 53109U 22080E   26193.70867103 -.00000003  00000+0  00000+0 0  9995
2 53109  70.1415 289.3709 0009030 284.1311  75.8345  6.42583319 93700
SITRO-AIS 5 (KATYS)     
1 57176U 23091L   26193.84240514  .00008351  00000+0  28943-3 0  9995
2 57176  97.5054 257.9936 0010898  20.6882 339.4797 15.30033654168266
SITRO-AIS 6 (CHIRKIN)   
1 57192U 23091AC  26193.81579016  .00006415  00000+0  24886-3 0  9993
2 57192  97.5061 256.9480 0011442  24.7153 335.4631 15.26411543168194
SITRO-AIS 8 (ANOKHIN)   
1 57193U 23091AD  26193.81370668  .00009444  00000+0  30002-3 0  9998
2 57193  97.5051 259.6597 0009774  16.7911 343.3652 15.32817602168375
SITRO-AIS 7 (FARTUSHNIY)
1 57194U 23091AE  26193.82427664  .00006016  00000+0  23588-3 0  9992
2 57194  97.5057 256.7680 0011381  25.9112 334.2694 15.26086498168183
SITRO-AIS 10 (BURDAEV)  
1 57199U 23091AK  26193.80024713  .00015169  00000+0  38731-3 0  9998
2 57199  97.5076 264.9700 0005066 351.2591   8.8566 15.39570828168701
SITRO-AIS 9 (SHCHUKIN)  
1 57201U 23091AM  26193.83498556  .00014422  00000+0  37458-3 0  9991
2 57201  97.5075 264.7151 0005332 351.5759   8.5396 15.39057173168696
SITRO-AIS 12 (SMIRENNIY)
1 57204U 23091AQ  26193.82072351  .00014614  00000+0  37594-3 0  9998
2 57204  97.5088 265.1838 0004866 344.6999  15.4098 15.39352662168710
SITRO-AIS 11 (SHEFFER)  
1 57208U 23091AU  26193.82692419  .00014683  00000+0  37228-3 0  9995
2 57208  97.5086 265.4532 0004778 344.0347  16.0747 15.39794628168731
SITRO-AIS 25            
1 59066U 24039R   26193.83495431  .00001828  00000+0  14453-3 0  9990
2 59066  95.3894 252.7172 0142606 237.8660 120.8662 14.93634499128551
SITRO-AIS 26            
1 59067U 24039S   26193.83985953  .00001830  00000+0  14534-3 0  9997
2 59067  95.3895 252.6129 0142945 238.4707 120.2491 14.93426413128547
SITRO-AIS 27            
1 59068U 24039T   26193.86986043  .00001565  00000+0  12361-3 0  9993
2 59068  95.3899 252.9173 0142003 236.9007 121.8521 14.93851996128577
SITRO-AIS 28            
1 59071U 24039U   26193.84673329  .00001984  00000+0  15582-3 0  9998
2 59071  95.3897 252.9500 0141919 236.8123 121.9427 14.93884755128571
GRBBETA                 
1 60237U 24128C   26193.83684955  .00002098  00000+0  15266-3 0  9995
2 60237  61.9895 126.2630 0037349 140.1454 220.2393 15.06799769110139
OOV-CUBE (TUBSAT-30)    
1 60240U 24128F   26193.40605557  .00001093  00000+0  95469-4 0  9991
2 60240  61.9937 137.6292 0041488 139.4098 221.0100 15.02866804109903
ROBUSTA-3A (MEDITERRAN*)
1 60243U 24128J   26193.79765032  .00004676  00000+0  27955-3 0  9995
2 60243  61.9863 117.6573 0038297 133.5108 226.9182 15.11965964110290
LASARSAT                
1 62391U 24247Q   26193.22203257  .00022836  00000+0  43384-3 0  9999
2 62391  44.9750 121.3703 0006861 145.2871 214.8468 15.47906721 87198
CROCUBE                 
1 62394U 24247T   26192.99415519  .00027505  00000+0  48357-3 0  9994
2 62394  44.9710 119.5598 0007111 151.4755 208.6527 15.50022679 87199
FORESAIL-1 PRIME        
1 66778U 25276DS  26193.16385043  .00002869  00000+0  14066-3 0  9991
2 66778  97.4195 265.9794 0003123  51.5125 308.6390 15.18922403 34192
KNACKSAT-2              
1 67683U 98067XZ  26193.44423869  .00033729  00000+0  37969-3 0  9991
2 67683  51.6258 167.2182 0008152 318.8485  41.1893 15.62203060 24220
